EARTHCARE               
1 59908U 24101A   24220.83589656  .00022417  00000+0  32478-3 0  9991
2 59908  96.9856 347.3741 0002335 262.4631  97.6359 15.55873541 11018
